[
  {
    "OBJECT_NAME": "CYGFM04",
    "OBJECT_ID": "2016-078B",
    "EPOCH": "2025-05-06T02:36:14.707584",
    "MEAN_MOTION": 15.41486581,
    "ECCENTRICITY": 0.0010328,
    "INCLINATION": 34.9376,
    "RA_OF_ASC_NODE": 18.0147,
    "ARG_OF_PERICENTER": 304.9632,
    "MEAN_ANOMALY": 55.0117,
    "EPHEMERIS_TYPE": 0,
    "CLASSIFICATION_TYPE": "U",
    "NORAD_CAT_ID": 41885,
    "ELEMENT_SET_NO": 999,
    "REV_AT_EPOCH": 46595,
    "BSTAR": 0.00044995,
    "MEAN_MOTION_DOT": 0.00019442,
    "MEAN_MOTION_DDOT": 0
  },
  {
    "OBJECT_NAME": "CYGFM02",
    "OBJECT_ID": "2016-078C",
    "EPOCH": "2025-05-05T20:57:05.785632",
    "MEAN_MOTION": 15.42374402,
    "ECCENTRICITY": 0.00123,
    "INCLINATION": 34.9458,
    "RA_OF_ASC_NODE": 20.0697,
    "ARG_OF_PERICENTER": 298.7839,
    "MEAN_ANOMALY": 61.1645,
    "EPHEMERIS_TYPE": 0,
    "CLASSIFICATION_TYPE": "U",
    "NORAD_CAT_ID": 41886,
    "ELEMENT_SET_NO": 999,
    "REV_AT_EPOCH": 46593,
    "BSTAR": 0.00040693,
    "MEAN_MOTION_DOT": 0.00018123,
    "MEAN_MOTION_DDOT": 0
  },
  {
    "OBJECT_NAME": "CYGFM01",
    "OBJECT_ID": "2016-078D",
    "EPOCH": "2025-05-05T21:44:34.910304",
    "MEAN_MOTION": 15.40119392,
    "ECCENTRICITY": 0.0011013,
    "INCLINATION": 34.9452,
    "RA_OF_ASC_NODE": 43.1635,
    "ARG_OF_PERICENTER": 273.0162,
    "MEAN_ANOMALY": 86.9296,
    "EPHEMERIS_TYPE": 0,
    "CLASSIFICATION_TYPE": "U",
    "NORAD_CAT_ID": 41887,
    "ELEMENT_SET_NO": 999,
    "REV_AT_EPOCH": 46556,
    "BSTAR": 0.00039257,
    "MEAN_MOTION_DOT": 0.00016199,
    "MEAN_MOTION_DDOT": 0
  },
  {
    "OBJECT_NAME": "CYGFM08",
    "OBJECT_ID": "2016-078E",
    "EPOCH": "2025-05-06T02:32:31.970112",
    "MEAN_MOTION": 15.40990265,
    "ECCENTRICITY": 0.0012931,
    "INCLINATION": 34.9479,
    "RA_OF_ASC_NODE": 26.9896,
    "ARG_OF_PERICENTER": 295.612,
    "MEAN_ANOMALY": 64.3263,
    "EPHEMERIS_TYPE": 0,
    "CLASSIFICATION_TYPE": "U",
    "NORAD_CAT_ID": 41888,
    "ELEMENT_SET_NO": 999,
    "REV_AT_EPOCH": 46583,
    "BSTAR": 0.00041391,
    "MEAN_MOTION_DOT": 0.00017602,
    "MEAN_MOTION_DDOT": 0
  },
  {
    "OBJECT_NAME": "CYGFM07",
    "OBJECT_ID": "2016-078G",
    "EPOCH": "2025-05-05T20:49:34.150368",
    "MEAN_MOTION": 15.41526895,
    "ECCENTRICITY": 0.0010872,
    "INCLINATION": 34.9501,
    "RA_OF_ASC_NODE": 18.7426,
    "ARG_OF_PERICENTER": 309.3741,
    "MEAN_ANOMALY": 50.6015,
    "EPHEMERIS_TYPE": 0,
    "CLASSIFICATION_TYPE": "U",
    "NORAD_CAT_ID": 41890,
    "ELEMENT_SET_NO": 999,
    "REV_AT_EPOCH": 46592,
    "BSTAR": 0.00040519,
    "MEAN_MOTION_DOT": 0.00017526,
    "MEAN_MOTION_DDOT": 0
  },
  {
    "OBJECT_NAME": "CYGFM03",
    "OBJECT_ID": "2016-078H",
    "EPOCH": "2025-05-06T03:03:11.264544",
    "MEAN_MOTION": 15.41321203,
    "ECCENTRICITY": 0.0009903,
    "INCLINATION": 34.9453,
    "RA_OF_ASC_NODE": 18.6194,
    "ARG_OF_PERICENTER": 298.5896,
    "MEAN_ANOMALY": 61.3826,
    "EPHEMERIS_TYPE": 0,
    "CLASSIFICATION_TYPE": "U",
    "NORAD_CAT_ID": 41891,
    "ELEMENT_SET_NO": 999,
    "REV_AT_EPOCH": 46594,
    "BSTAR": 0.00040716,
    "MEAN_MOTION_DOT": 0.00017485,
    "MEAN_MOTION_DDOT": 0
  },
  {
    "OBJECT_NAME": "FENGYUN 3D",
    "OBJECT_ID": "2017-072A",
    "EPOCH": "2025-05-06T04:59:14.565408",
    "MEAN_MOTION": 14.19619857,
    "ECCENTRICITY": 0.0002401,
    "INCLINATION": 98.9597,
    "RA_OF_ASC_NODE": 89.6177,
    "ARG_OF_PERICENTER": 113.5278,
    "MEAN_ANOMALY": 246.615,
    "EPHEMERIS_TYPE": 0,
    "CLASSIFICATION_TYPE": "U",
    "NORAD_CAT_ID": 43010,
    "ELEMENT_SET_NO": 999,
    "REV_AT_EPOCH": 38724,
    "BSTAR": 0.00010591,
    "MEAN_MOTION_DOT": 1.78e-06,
    "MEAN_MOTION_DDOT": 0
  },
  {
    "OBJECT_NAME": "NOAA 20 (JPSS-1)",
    "OBJECT_ID": "2017-073A",
    "EPOCH": "2025-05-06T03:51:05.436576",
    "MEAN_MOTION": 14.1953453,
    "ECCENTRICITY": 0.000199,
    "INCLINATION": 98.74,
    "RA_OF_ASC_NODE": 65.1827,
    "ARG_OF_PERICENTER": 58.1231,
    "MEAN_ANOMALY": 302.0138,
    "EPHEMERIS_TYPE": 0,
    "CLASSIFICATION_TYPE": "U",
    "NORAD_CAT_ID": 43013,
    "ELEMENT_SET_NO": 999,
    "REV_AT_EPOCH": 38672,
    "BSTAR": 8.2003e-05,
    "MEAN_MOTION_DOT": 1.29e-06,
    "MEAN_MOTION_DDOT": 0
  },
  {
    "OBJECT_NAME": "GOES 17",
    "OBJECT_ID": "2018-022A",
    "EPOCH": "2025-05-06T04:59:38.859360",
    "MEAN_MOTION": 1.00270879,
    "ECCENTRICITY": 0.0002386,
    "INCLINATION": 0.0396,
    "RA_OF_ASC_NODE": 74.8297,
    "ARG_OF_PERICENTER": 18.6818,
    "MEAN_ANOMALY": 101.3126,
    "EPHEMERIS_TYPE": 0,
    "CLASSIFICATION_TYPE": "U",
    "NORAD_CAT_ID": 43226,
    "ELEMENT_SET_NO": 999,
    "REV_AT_EPOCH": 2635,
    "BSTAR": 0,
    "MEAN_MOTION_DOT": -9.9e-07,
    "MEAN_MOTION_DDOT": 0
  },
  {
    "OBJECT_NAME": "FENGYUN 2H",
    "OBJECT_ID": "2018-050A",
    "EPOCH": "2025-05-05T21:23:48.484896",
    "MEAN_MOTION": 1.00271176,
    "ECCENTRICITY": 4.57e-05,
    "INCLINATION": 1.9829,
    "RA_OF_ASC_NODE": 83.8514,
    "ARG_OF_PERICENTER": 148.727,
    "MEAN_ANOMALY": 31.7119,
    "EPHEMERIS_TYPE": 0,
    "CLASSIFICATION_TYPE": "U",
    "NORAD_CAT_ID": 43491,
    "ELEMENT_SET_NO": 999,
    "REV_AT_EPOCH": 2535,
    "BSTAR": 0,
    "MEAN_MOTION_DOT": -1.35e-06,
    "MEAN_MOTION_DDOT": 0
  },
  {
    "OBJECT_NAME": "METOP-C",
    "OBJECT_ID": "2018-087A",
    "EPOCH": "2025-05-06T03:41:37.325472",
    "MEAN_MOTION": 14.21473721,
    "ECCENTRICITY": 2.05e-05,
    "INCLINATION": 98.7177,
    "RA_OF_ASC_NODE": 186.9152,
    "ARG_OF_PERICENTER": 164.5402,
    "MEAN_ANOMALY": 195.5782,
    "EPHEMERIS_TYPE": 0,
    "CLASSIFICATION_TYPE": "U",
    "NORAD_CAT_ID": 43689,
    "ELEMENT_SET_NO": 999,
    "REV_AT_EPOCH": 33700,
    "BSTAR": 9.8037e-05,
    "MEAN_MOTION_DOT": 1.71e-06,
    "MEAN_MOTION_DDOT": 0
  },
  {
    "OBJECT_NAME": "GEO-KOMPSAT-2A",
    "OBJECT_ID": "2018-100A",
    "EPOCH": "2025-05-05T21:48:43.557408",
    "MEAN_MOTION": 1.00270037,
    "ECCENTRICITY": 0.0002009,
    "INCLINATION": 0.0546,
    "RA_OF_ASC_NODE": 85.6476,
    "ARG_OF_PERICENTER": 345.0814,
    "MEAN_ANOMALY": 248.7324,
    "EPHEMERIS_TYPE": 0,
    "CLASSIFICATION_TYPE": "U",
    "NORAD_CAT_ID": 43823,
    "ELEMENT_SET_NO": 999,
    "REV_AT_EPOCH": 2357,
    "BSTAR": 0,
    "MEAN_MOTION_DOT": -3.51e-06,
    "MEAN_MOTION_DDOT": 0
  },
  {
    "OBJECT_NAME": "METEOR-M2 2",
    "OBJECT_ID": "2019-038A",
    "EPOCH": "2025-05-06T05:07:43.615200",
    "MEAN_MOTION": 14.24198472,
    "ECCENTRICITY": 0.000234,
    "INCLINATION": 98.8725,
    "RA_OF_ASC_NODE": 103.561,
    "ARG_OF_PERICENTER": 99.9289,
    "MEAN_ANOMALY": 260.2153,
    "EPHEMERIS_TYPE": 0,
    "CLASSIFICATION_TYPE": "U",
    "NORAD_CAT_ID": 44387,
    "ELEMENT_SET_NO": 999,
    "REV_AT_EPOCH": 30336,
    "BSTAR": 0.00010347,
    "MEAN_MOTION_DOT": 1.93e-06,
    "MEAN_MOTION_DDOT": 0
  },
  {
    "OBJECT_NAME": "ARKTIKA-M 1",
    "OBJECT_ID": "2021-016A",
    "EPOCH": "2025-05-04T06:20:01.625280",
    "MEAN_MOTION": 2.00603543,
    "ECCENTRICITY": 0.7087168,
    "INCLINATION": 63.1456,
    "RA_OF_ASC_NODE": 113.2774,
    "ARG_OF_PERICENTER": 268.5797,
    "MEAN_ANOMALY": 16.7566,
    "EPHEMERIS_TYPE": 0,
    "CLASSIFICATION_TYPE": "U",
    "NORAD_CAT_ID": 47719,
    "ELEMENT_SET_NO": 999,
    "REV_AT_EPOCH": 3058,
    "BSTAR": 0,
    "MEAN_MOTION_DOT": 5e-07,
    "MEAN_MOTION_DDOT": 0
  }
]