CYGFM04                 
1 41885U 16078B   25126.10850356  .00019442  00000+0  44995-3 0  9995
2 41885  34.9376  18.0147 0010328 304.9632  55.0117 15.41486581465953
CYGFM02                 
1 41886U 16078C   25125.87298363  .00018123  00000+0  40693-3 0  9999
2 41886  34.9458  20.0697 0012300 298.7839  61.1645 15.42374402465930
CYGFM01                 
1 41887U 16078D   25125.90595961  .00016199  00000+0  39257-3 0  9993
2 41887  34.9452  43.1635 0011013 273.0162  86.9296 15.40119392465567
CYGFM08                 
1 41888U 16078E   25126.10592558  .00017602  00000+0  41391-3 0  9998
2 41888  34.9479  26.9896 0012931 295.6120  64.3263 15.40990265465839
CYGFM07                 
1 41890U 16078G   25125.86775637  .00017526  00000+0  40519-3 0  9990
2 41890  34.9501  18.7426 0010872 309.3741  50.6015 15.41526895465928
CYGFM03                 
1 41891U 16078H   25126.12721371  .00017485  00000+0  40716-3 0  9990
2 41891  34.9453  18.6194 0009903 298.5896  61.3826 15.41321203465946
FENGYUN 3D              
1 43010U 17072A   25126.20780747  .00000178  00000+0  10591-3 0  9990
2 43010  98.9597  89.6177 0002401 113.5278 246.6150 14.19619857387248
NOAA 20 (JPSS-1)        
1 43013U 17073A   25126.16047959  .00000129  00000+0  82003-4 0  9994
2 43013  98.7400  65.1827 0001990  58.1231 302.0138 14.19534530386727
GOES 17                 
1 43226U 18022A   25126.20808865 -.00000099  00000+0  00000+0 0  9990
2 43226   0.0396  74.8297 0002386  18.6818 101.3126  1.00270879 26359
FENGYUN 2H              
1 43491U 18050A   25125.89153339 -.00000135  00000+0  00000+0 0  9999
2 43491   1.9829  83.8514 0000457 148.7270  31.7119  1.00271176 25358
METOP-C                 
1 43689U 18087A   25126.15390423  .00000171  00000+0  98037-4 0  9996
2 43689  98.7177 186.9152 0000205 164.5402 195.5782 14.21473721337004
GEO-KOMPSAT-2A          
1 43823U 18100A   25125.90883747 -.00000351  00000+0  00000+0 0  9999
2 43823   0.0546  85.6476 0002009 345.0814 248.7324  1.00270037 23576
METEOR-M2 2             
1 44387U 19038A   25126.21369925  .00000193  00000+0  10347-3 0  9990
2 44387  98.8725 103.5610 0002340  99.9289 260.2153 14.24198472303364
ARKTIKA-M 1             
1 47719U 21016A   25124.26390770  .00000050  00000+0  00000+0 0  9999
2 47719  63.1456 113.2774 7087168 268.5797  16.7566  2.00603543 30581
